21576,ORBCOMM-X,1991,99.85,-1.0,-,98.43,Inactive,0,LEO,French Guiana,ORBCOMM,Unknown,Unknown,Ariane,1 21576U 91050C   23231.40671747  .00000408  00000+0  13723-3 0  9993,2 21576  98.4311 297.9561 0004568  54.9638 305.1980 14.42144991686056,14.42144991,0.0004568,LEO
23545,ORBCOMM FM01,1995,97.55,-1.0,-,69.97,Inactive,0,LEO,Western Range Airspace,ORBCOMM,Unknown,Unknown,Pegasus,1 23545U 95017A   23231.52095460  .00003158  00000+0  46692-3 0  9999,2 23545  69.9676 278.4998 0007916 259.4858 100.5398 14.76158440513921,14.7615844,0.0007916,LEO
23546,ORBCOMM FM02,1995,97.59,-1.0,-,69.97,Inactive,0,LEO,Western Range Airspace,ORBCOMM,Unknown,Unknown,Pegasus,1 23546U 95017B   23231.47031966  .00003509  00000+0  52475-3 0  9991,2 23546  69.9708 297.5370 0009438 251.6187 108.3934 14.75552415513521,14.75552415,0.0009438,LEO
25112,ORBCOMM FM08,1997,99.92,45.0,-,45.02,Inactive,1,LEO,Eastern Range Airspace,ORBCOMM,Commercial,Communications,Pegasus,1 25112U 97084A   23231.07888273  .00001560  00000+0  52370-3 0  9994,2 25112  45.0166 321.9797 0006951 131.6501 228.4945 14.41117895345020,14.41117895,0.0006951,LEO
25113,ORBCOMM FM10,1997,99.93,45.0,-,45.02,Inactive,1,LEO,Eastern Range Airspace,ORBCOMM,Commercial,Communications,Pegasus,1 25113U 97084B   23231.62794931  .00001445  00000+0  48868-3 0  9992,2 25113  45.0179 321.0535 0003794 108.8399 251.2863 14.41070497345095,14.41070497,0.0003794,LEO
25114,ORBCOMM FM11,1997,99.93,45.0,+,45.02,Active,1,LEO,Eastern Range Airspace,ORBCOMM,Commercial,Communications,Pegasus,1 25114U 97084C   23230.58571098  .00001539  00000+0  51892-3 0  9999,2 25114  45.0165 325.8864 0004546 100.0733 260.0629 14.40956788344935,14.40956788,0.0004546,LEO
25115,ORBCOMM FM12,1997,99.93,45.0,-,45.02,Inactive,1,LEO,Eastern Range Airspace,ORBCOMM,Commercial,Communications,Pegasus,1 25115U 97084D   23231.44295849  .00001410  00000+0  47908-3 0  9994,2 25115  45.0172 321.4392 0003631 111.4309 248.6928 14.40955666345064,14.40955666,0.0003631,LEO
25116,ORBCOMM FM09,1997,99.94,45.0,-,45.02,Inactive,1,LEO,Eastern Range Airspace,ORBCOMM,Commercial,Communications,Pegasus,1 25116U 97084E   23231.10238746  .00001446  00000+0  49059-3 0  9999,2 25116  45.0177 323.6836 0004332  82.5505 277.5837 14.40934771345011,14.40934771,0.0004332,LEO
